COSMOS 2361 [-]         
1 25590U 98076A   22267.18878382  .00000072  00000+0  61522-4 0  9993
2 25590  82.9331 133.1940 0030393 295.3305 184.7792 13.73028076189783
COSMOS 2378 [-]         
1 26818U 01023A   22267.21957695  .00000041  00000+0  28249-4 0  9997
2 26818  82.9298 151.0301 0031712 239.3245 120.4788 13.73975527 67875
COSMOS 2389 [-]         
1 27436U 02026A   22267.54371418  .00000045  00000+0  30306-4 0  9998
2 27436  82.9465  96.6795 0047700  99.0050 314.7205 13.74982332 19982
COSMOS 2398 [-]         
1 27818U 03023A   22267.28897285  .00000067  00000+0  56738-4 0  9997
2 27818  82.9460  58.7711 0032167 135.5883 224.7876 13.72217466966947
COSMOS 2407 [+]         
1 28380U 04028A   22267.24671107  .00000052  00000+0  36825-4 0  9996
2 28380  82.9650   3.2846 0040554 100.7456 259.8273 13.76120566912743
COSMOS 2414 [+]         
1 28521U 05002A   22267.53789548  .00000057  00000+0  34700-4 0  9992
2 28521  82.9544 353.3251 0038927 251.3143 108.3787 13.87665542895296
COSMOS 2429 [-]         
1 32052U 07038A   22267.55915625  .00000083  00000+0  70741-4 0  9990
2 32052  82.9790 129.3105 0039753  77.8300 282.7305 13.74969348754526
COSMOS 2454 [-]         
1 35635U 09039A   22267.36934240  .00000048  00000+0  26127-4 0  9996
2 35635  82.9602 339.6190 0018761 191.7446 168.3274 13.89694619668431
COSMOS 2463 [+]         
1 36519U 10017A   22267.53050025  .00000050  00000+0  39621-4 0  9991
2 36519  82.9640 170.0469 0035269 309.7075 226.4341 13.71480111621275
